0 FENGYUN 1C DEB
1 30109U 99025RN  13281.38681282  .00000266  00000-0  14653-3 0  6578
2 30109 098.9642 333.2597 0178194 338.1529 152.7284 14.12105461346979
0 FENGYUN 1C DEB
1 30109U 99025RN  13282.73131896  .00000294  00000-0  15967-3 0  6580
2 30109 098.9642 334.6047 0178165 334.3324 147.6586 14.12107100347165
0 FENGYUN 1C DEB
1 30109U 99025RN  13284.13660500  .00000418  00000-0  21807-3 0  6594
2 30109 098.9641 336.0107 0178117 330.3493 091.5682 14.12107551347363
0 FENGYUN 1C DEB
1 30109U 99025RN  13285.70769392  .00000447  00000-0  23172-3 0  6608
2 30109 098.9636 337.5825 0178051 325.8934 158.3615 14.12108516347580
0 FENGYUN 1C DEB
1 30109U 99025RN  13286.82704868  .00000490  00000-0  25179-3 0  6617
2 30109 098.9633 338.7024 0178014 322.7142 088.7245 14.12109546347744
0 FENGYUN 1C DEB
1 30109U 99025RN  13288.10388313  .00000593  00000-0  30022-3 0  6621
2 30109 098.9628 339.9798 0178001 319.0855 099.6555 14.12112466347925
0 FENGYUN 1C DEB
1 30109U 99025RN  13289.37933108  .00000416  00000-0  21703-3 0  6630
2 30109 098.9625 341.2557 0177962 315.4635 103.5478 14.12114842348102
0 FENGYUN 1C DEB
1 30109U 99025RN  13290.73728696  .00000466  00000-0  24066-3 0  6647
2 30109 098.9622 342.6141 0177976 311.6076 166.8904 14.12116144348298
0 FENGYUN 1C DEB
1 30109U 99025RN  13292.14291394  .00000527  00000-0  26931-3 0  6656
2 30109 098.9620 344.0200 0177967 307.6132 112.5896 14.12116734348491
0 FENGYUN 1C DEB
1 30109U 99025RN  13293.71186637  .00000635  00000-0  32003-3 0  6661
2 30109 098.9619 345.5892 0177934 303.1593 168.5786 14.12117983348719
0 FENGYUN 1C DEB
1 30109U 99025RN  13295.11705865  .00000655  00000-0  32911-3 0  6678
2 30109 098.9620 346.9946 0177951 299.1598 112.0848 14.12119832348914
